start=new Date('2022-02-26T00:00:00.000Z').valueOf();
sats=[{"PERIOD":"95.593","CLASSIFICATION_TYPE":"U","SITE":"AFETR","DECAY_DATE":null,"ARG_OF_PERICENTER":"66.2280","MEAN_ANOMALY":"293.8852","TIME_SYSTEM":"UTC","TLE_LINE2":"2 47403  53.0542 164.0277 0001368  66.2280 293.8852 15.06392599 61450","PERIAPSIS":"546.289","TLE_LINE1":"1 47403U 21005BG  22056.72389248  .00000049  00000-0  22154-4 0  9995","REF_FRAME":"TEME","ECCENTRICITY":"0.00013680","OBJECT_NAME":"STARLINK-2127","NORAD_CAT_ID":"47403","LAUNCH_DATE":"2021-01-20","RA_OF_ASC_NODE":"164.0277","MEAN_MOTION_DDOT":"0.0000000000000","SEMIMAJOR_AXIS":"6925.371","RCS_SIZE":"LARGE","MEAN_MOTION_DOT":"0.00000049","INCLINATION":"53.0542","ELEMENT_SET_NO":"999","APOAPSIS":"548.184","FILE":"3323947","CENTER_NAME":"EARTH","OBJECT_ID":"2021-005BG","EPOCH":"2022-02-25T17:22:24.310272","GP_ID":"197032116","REV_AT_EPOCH":"6145","EPHEMERIS_TYPE":"0","COUNTRY_CODE":"US","BSTAR":"0.00002215400000","OBJECT_TYPE":"PAYLOAD","MEAN_ELEMENT_THEORY":"SGP4","MEAN_MOTION":"15.06392599"},{"NORAD_CAT_ID":"47404","RA_OF_ASC_NODE":"163.4472","LAUNCH_DATE":"2021-01-20","REF_FRAME":"TEME","ECCENTRICITY":"0.00014550","OBJECT_NAME":"STARLINK-2128","ELEMENT_SET_NO":"999","APOAPSIS":"548.300","FILE":"3323947","MEAN_MOTION_DDOT":"0.0000000000000","SEMIMAJOR_AXIS":"6925.427","RCS_SIZE":"LARGE","INCLINATION":"53.0542","MEAN_MOTION_DOT":"-0.00002638","OBJECT_ID":"2021-005BH","EPOCH":"2022-02-25T20:28:13.082016","GP_ID":"197032363","CENTER_NAME":"EARTH","BSTAR":"-0.00015841000000","MEAN_ELEMENT_THEORY":"SGP4","OBJECT_TYPE":"PAYLOAD","MEAN_MOTION":"15.06374269","REV_AT_EPOCH":"6147","EPHEMERIS_TYPE":"0","COUNTRY_CODE":"US","CLASSIFICATION_TYPE":"U","SITE":"AFETR","PERIOD":"95.594","ARG_OF_PERICENTER":"57.5996","MEAN_ANOMALY":"302.5134","DECAY_DATE":null,"TIME_SYSTEM":"UTC","TLE_LINE1":"1 47404U 21005BH  22056.85292919 -.00002638  00000-0 -15841-3 0  9990","TLE_LINE2":"2 47404  53.0542 163.4472 0001455  57.5996 302.5134 15.06374269 61472","PERIAPSIS":"546.285"},{"DECAY_DATE":null,"ARG_OF_PERICENTER":"67.6725","MEAN_ANOMALY":"292.4419","PERIOD":"95.592","SITE":"AFETR","CLASSIFICATION_TYPE":"U","TLE_LINE2":"2 47405  53.0537 193.8128 0001462  67.6725 292.4419 15.06400075 61032","PERIAPSIS":"546.201","TLE_LINE1":"1 47405U 21005BJ  22056.76904465  .00000794  00000-0  72194-4 0  9991","TIME_SYSTEM":"UTC","MEAN_MOTION_DDOT":"0.0000000000000","MEAN_MOTION_DOT":"0.00000794","INCLINATION":"53.0537","RCS_SIZE":"LARGE","SEMIMAJOR_AXIS":"6925.348","ELEMENT_SET_NO":"999","APOAPSIS":"548.226","FILE":"3323947","REF_FRAME":"TEME","OBJECT_NAME":"STARLINK-2130","ECCENTRICITY":"0.00014620","NORAD_CAT_ID":"47405","RA_OF_ASC_NODE":"193.8128","LAUNCH_DATE":"2021-01-20","EPHEMERIS_TYPE":"0","COUNTRY_CODE":"US","REV_AT_EPOCH":"6103","MEAN_ELEMENT_THEORY":"SGP4","OBJECT_TYPE":"PAYLOAD","BSTAR":"0.00007219400000","MEAN_MOTION":"15.06400075","CENTER_NAME":"EARTH","EPOCH":"2022-02-25T18:27:25.457760","OBJECT_ID":"2021-005BJ","GP_ID":"197033118"},{"PERIOD":"95.593","SITE":"AFETR","CLASSIFICATION_TYPE":"U","DECAY_DATE":null,"MEAN_ANOMALY":"269.5864","ARG_OF_PERICENTER":"90.5259","TIME_SYSTEM":"UTC","PERIAPSIS":"546.440","TLE_LINE2":"2 47406  53.0553 163.9855 0001164  90.5259 269.5864 15.06389298 61450","TLE_LINE1":"1 47406U 21005BK  22056.73126672  .00000776  00000-0  70991-4 0  9998","ECCENTRICITY":"0.00011640","OBJECT_NAME":"STARLINK-2133","REF_FRAME":"TEME","RA_OF_ASC_NODE":"163.9855","LAUNCH_DATE":"2021-01-20","NORAD_CAT_ID":"47406","MEAN_MOTION_DOT":"0.00000776","INCLINATION":"53.0553","SEMIMAJOR_AXIS":"6925.381","RCS_SIZE":"LARGE","MEAN_MOTION_DDOT":"0.0000000000000","APOAPSIS":"548.052","FILE":"3323947","ELEMENT_SET_NO":"999","CENTER_NAME":"EARTH","GP_ID":"197031367","EPOCH":"2022-02-25T17:33:01.444608","OBJECT_ID":"2021-005BK","EPHEMERIS_TYPE":"0","COUNTRY_CODE":"US","REV_AT_EPOCH":"6145","MEAN_MOTION":"15.06389298","MEAN_ELEMENT_THEORY":"SGP4","OBJECT_TYPE":"PAYLOAD","BSTAR":"0.00007099100000"},{"MEAN_MOTION_DDOT":"0.0000000000000","SEMIMAJOR_AXIS":"6925.343","RCS_SIZE":"LARGE","INCLINATION":"53.0539","MEAN_MOTION_DOT":"0.00000725","ELEMENT_SET_NO":"999","APOAPSIS":"548.334","FILE":"3323947","REF_FRAME":"TEME","ECCENTRICITY":"0.00016260","OBJECT_NAME":"STARLINK-2134","NORAD_CAT_ID":"47407","RA_OF_ASC_NODE":"163.6646","LAUNCH_DATE":"2021-01-20","REV_AT_EPOCH":"6146","COUNTRY_CODE":"US","EPHEMERIS_TYPE":"0","BSTAR":"0.00006756100000","OBJECT_TYPE":"PAYLOAD","MEAN_ELEMENT_THEORY":"SGP4","MEAN_MOTION":"15.06401792","CENTER_NAME":"EARTH","OBJECT_ID":"2021-005BL","EPOCH":"2022-02-25T19:19:10.726464","GP_ID":"197031617","DECAY_DATE":null,"ARG_OF_PERICENTER":"62.9800","MEAN_ANOMALY":"297.1354","PERIOD":"95.592","CLASSIFICATION_TYPE":"U","SITE":"AFETR","TLE_LINE2":"2 47407  53.0539 163.6646 0001626  62.9800 297.1354 15.06401792 61464","PERIAPSIS":"546.082","TLE_LINE1":"1 47407U 21005BL  22056.80498526  .00000725  00000-0  67561-4 0  9990","TIME_SYSTEM":"UTC"},{"ECCENTRICITY":"0.00015190","OBJECT_NAME":"STARLINK-2135","REF_FRAME":"TEME","RA_OF_ASC_NODE":"164.0858","LAUNCH_DATE":"2021-01-20","NORAD_CAT_ID":"47408","RCS_SIZE":"LARGE","SEMIMAJOR_AXIS":"6925.350","INCLINATION":"53.0563","MEAN_MOTION_DOT":"-0.00000457","MEAN_MOTION_DDOT":"0.0000000000000","APOAPSIS":"548.267","FILE":"3323947","ELEMENT_SET_NO":"999","CENTER_NAME":"EARTH","GP_ID":"197032863","OBJECT_ID":"2021-005BM","EPOCH":"2022-02-25T17:01:10.767360","REV_AT_EPOCH":"6145","EPHEMERIS_TYPE":"0","COUNTRY_CODE":"US","MEAN_MOTION":"15.06399424","BSTAR":"-0.00001177500000","OBJECT_TYPE":"PAYLOAD","MEAN_ELEMENT_THEORY":"SGP4","PERIOD":"95.592","CLASSIFICATION_TYPE":"U","SITE":"AFETR","DECAY_DATE":null,"MEAN_ANOMALY":"288.9636","ARG_OF_PERICENTER":"71.1518","TIME_SYSTEM":"UTC","PERIAPSIS":"546.163","TLE_LINE2":"2 47408  53.0563 164.0858 0001519  71.1518 288.9636 15.06399424 61459","TLE_LINE1":"1 47408U 21005BM  22056.70915240 -.00000457  00000-0 -11775-4 0  9997"},{"REF_FRAME":"TEME","ECCENTRICITY":"0.00014500","OBJECT_NAME":"STARLINK-1782","NORAD_CAT_ID":"47548","RA_OF_ASC_NODE":"144.0692","LAUNCH_DATE":"2021-02-04","MEAN_MOTION_DDOT":"0.0000000000000","SEMIMAJOR_AXIS":"6925.322","RCS_SIZE":"LARGE","MEAN_MOTION_DOT":"0.00002190","INCLINATION":"53.0539","ELEMENT_SET_NO":"999","APOAPSIS":"548.191","FILE":"3323947","CENTER_NAME":"EARTH","OBJECT_ID":"2021-009A","EPOCH":"2022-02-25T17:09:07.920000","GP_ID":"197033134","REV_AT_EPOCH":"5892","EPHEMERIS_TYPE":"0","COUNTRY_CODE":"US","BSTAR":"0.00016582000000","OBJECT_TYPE":"PAYLOAD","MEAN_ELEMENT_THEORY":"SGP4","MEAN_MOTION":"15.06408637","PERIOD":"95.592","CLASSIFICATION_TYPE":"U","SITE":"AFETR","DECAY_DATE":null,"ARG_OF_PERICENTER":"64.5089","MEAN_ANOMALY":"295.6049","TIME_SYSTEM":"UTC","TLE_LINE2":"2 47548  53.0539 144.0692 0001450  64.5089 295.6049 15.06408637 58922","PERIAPSIS":"546.183","TLE_LINE1":"1 47548U 21009A   22056.71467500  .00002190  00000-0  16582-3 0  9992"},{"TIME_SYSTEM":"UTC","PERIAPSIS":"546.311","TLE_LINE2":"2 47549  53.0555 144.3815 0001305  73.1079 287.0053 15.06399599 58910","TLE_LINE1":"1 47549U 21009B   22056.64464735  .00000380  00000-0  44391-4 0  9991","PERIOD":"95.592","SITE":"AFETR","CLASSIFICATION_TYPE":"U","DECAY_DATE":null,"MEAN_ANOMALY":"287.0053","ARG_OF_PERICENTER":"73.1079","CENTER_NAME":"EARTH","GP_ID":"197031383","EPOCH":"2022-02-25T15:28:17.531040","OBJECT_ID":"2021-009B","COUNTRY_CODE":"US","EPHEMERIS_TYPE":"0","REV_AT_EPOCH":"5891","MEAN_MOTION":"15.06399599","OBJECT_TYPE":"PAYLOAD","MEAN_ELEMENT_THEORY":"SGP4","BSTAR":"0.00004439100000","ECCENTRICITY":"0.00013050","OBJECT_NAME":"STARLINK-1806","REF_FRAME":"TEME","RA_OF_ASC_NODE":"144.3815","LAUNCH_DATE":"2021-02-04","NORAD_CAT_ID":"47549","INCLINATION":"53.0555","MEAN_MOTION_DOT":"0.00000380","SEMIMAJOR_AXIS":"6925.350","RCS_SIZE":"LARGE","MEAN_MOTION_DDOT":"0.0000000000000","APOAPSIS":"548.119","FILE":"3323947","ELEMENT_SET_NO":"999"},{"OBJECT_TYPE":"PAYLOAD","MEAN_ELEMENT_THEORY":"SGP4","BSTAR":"0.00000456220000","MEAN_MOTION":"15.06396783","EPHEMERIS_TYPE":"0","COUNTRY_CODE":"US","REV_AT_EPOCH":"5906","EPOCH":"2022-02-25T17:21:04.538016","OBJECT_ID":"2021-009C","GP_ID":"197031633","CENTER_NAME":"EARTH","ELEMENT_SET_NO":"999","APOAPSIS":"548.281","FILE":"3323947","MEAN_MOTION_DDOT":"0.0000000000000","INCLINATION":"53.0540","MEAN_MOTION_DOT":"-0.00000214","RCS_SIZE":"LARGE","SEMIMAJOR_AXIS":"6925.358","NORAD_CAT_ID":"47550","RA_OF_ASC_NODE":"134.0345","LAUNCH_DATE":"2021-02-04","REF_FRAME":"TEME","ECCENTRICITY":"0.00015270","OBJECT_NAME":"STARLINK-1909","TLE_LINE1":"1 47550U 21009C   22056.72296919 -.00000214  00000-0  45622-5 0  9995","TLE_LINE2":"2 47550  53.0540 134.0345 0001527  63.9336 296.1811 15.06396783 59061","PERIAPSIS":"546.166","TIME_SYSTEM":"UTC","ARG_OF_PERICENTER":"63.9336","MEAN_ANOMALY":"296.1811","DECAY_DATE":null,"SITE":"AFETR","CLASSIFICATION_TYPE":"U","PERIOD":"95.592"},{"LAUNCH_DATE":"2021-02-04","RA_OF_ASC_NODE":"154.3475","NORAD_CAT_ID":"47551","ECCENTRICITY":"0.00015170","OBJECT_NAME":"STARLINK-1938","REF_FRAME":"TEME","APOAPSIS":"548.279","FILE":"3323947","ELEMENT_SET_NO":"999","INCLINATION":"53.0556","MEAN_MOTION_DOT":"-0.00000092","SEMIMAJOR_AXIS":"6925.363","RCS_SIZE":"LARGE","MEAN_MOTION_DDOT":"0.0000000000000","GP_ID":"197032879","EPOCH":"2022-02-25T15:37:34.747968","OBJECT_ID":"2021-009D","CENTER_NAME":"EARTH","MEAN_MOTION":"15.06395162","OBJECT_TYPE":"PAYLOAD","MEAN_ELEMENT_THEORY":"SGP4","BSTAR":"0.00001272000000","COUNTRY_CODE":"US","EPHEMERIS_TYPE":"0","REV_AT_EPOCH":"5877","SITE":"AFETR","CLASSIFICATION_TYPE":"U","PERIOD":"95.592","MEAN_ANOMALY":"303.6338","ARG_OF_PERICENTER":"56.4796","DECAY_DATE":null,"TIME_SYSTEM":"UTC","TLE_LINE1":"1 47551U 21009D   22056.65109662 -.00000092  00000-0  12720-4 0  9992","PERIAPSIS":"546.178","TLE_LINE2":"2 47551  53.0556 154.3475 0001517  56.4796 303.6338 15.06395162 58779"}];
